#aV2016  6 16  0  0  0.00000000     288 DD+AD WGS84 FIT  NGA
## 1901 345600.00000000   300.00000000 57555 0.0000000000000
+   31     1  2  3  5  6  7  8  9 10 11 12 13 14 15 16 17 18
+         19 20 21 22 23 24 25 26 27 28 29 30 31 32  0  0  0
+          0  0  0  0  0  0  0  0  0  0  0  0  0  0  0  0  0
+          0  0  0  0  0  0  0  0  0  0  0  0  0  0  0  0  0
+          0  0  0  0  0  0  0  0  0  0  0  0  0  0  0  0  0
++         2  2  2  2  2  2  2  2  2  2  2  2  2  2  2  2  2
++         2  2  2  2  2  2  2  2  2  2  2  2  2  2  0  0  0
++         0  0  0  0  0  0  0  0  0  0  0  0  0  0  0  0  0
++         0  0  0  0  0  0  0  0  0  0  0  0  0  0  0  0  0
++         0  0  0  0  0  0  0  0  0  0  0  0  0  0  0  0  0
%c cc cc ccc ccc cccc cccc cccc cccc ccccc ccccc ccccc ccccc
%c cc cc ccc ccc cccc cccc cccc cccc ccccc ccccc ccccc ccccc
%f  0.0000000  0.000000000  0.00000000000  0.000000000000000
%f  0.0000000  0.000000000  0.00000000000  0.000000000000000
%i    0    0    0    0      0      0      0      0         0
%i    0    0    0    0      0      0      0      0         0
/*      NGA, ST. LOUIS,MO.                                  
/*   EPHEMERIS COMPUTED FROM 2 DAYS OF DATA                 
/*   EPOCHA v2.4 SMOOTHER                                   
/*   G1762  SATAF SATAPC                                    
*  2016  6 16 14  0  0.00000000
P  1 -11676.713309 -13687.286354 -19698.419861     23.829690                    
V  1  24752.295289   -970.174384 -13822.311465      0.012280                    
P  2 -11043.404836  14643.576920  19520.062249    585.019875                    
V  2 -24077.659281   -542.376867 -13914.767761     -0.026192                    
P  3 -13546.496841 -22843.489391    336.085021    -67.790917                    
V  3   2284.743548  -1811.206346 -31707.851880     -0.033770                    
P  5   -538.214915  21242.129179  15745.096157   -112.411284                    
V  5 -12427.038772 -16146.208021  21466.841372      0.029152                    
P  6 -23891.559979   6712.680688   9484.592554    205.593001                    
V  6 -12033.041124  -2362.598611 -28671.167021      0.053593                    
P  7 -24584.600304  -6411.554423   8572.565827    448.080351                    
V  7  10606.923759  -1869.287670  29101.710608     -0.024395                    
P  8   3336.110202 -23271.590820 -12272.802795    -39.242222                    
V  8   9697.720109 -12521.865059  26313.116578     -0.014392                    
P  9 -13341.839211  -7553.152663  21674.517449    149.740094                    
V  9  13542.940824 -24019.127336    -51.454852      0.072659                    
P 10  16577.161114   -490.843804 -20739.336103    -46.658061                    
V 10  12623.313152  23170.602930   9464.294100     -0.081646                    
P 11  -6071.541466 -15708.510259 -21099.999033   -651.487755                    
V 11  24038.591087  -9440.396590    145.948918     -0.027084                    
P 12  10496.789014  24388.249451  -2729.788307    382.894707                    
V 12  -2988.278464  -2140.109357 -32003.556013      0.010352                    
P 13 -11613.302954  23114.830115  -6346.745228    -25.106869                    
V 13  -6499.006798   4987.681925  30574.749759     -0.025427                    
P 14  19085.938922 -14513.546443 -10994.341143    -19.665701                    
V 14  -6001.193939  13336.022492 -27531.617976     -0.020261                    
P 15    534.991775  22451.481022 -14030.587026   -315.525695                    
V 15 -10635.976853  14626.352684  23555.498582     -0.016119                    
P 16   2241.280509 -20283.974793  16674.619166    -10.494579                    
V 16  10777.290587  18627.503820  21448.608459      0.024256                    
P 17 -18720.067753   9601.997866 -15768.076877   -204.018897                    
V 17   9560.048572 -18415.693424 -22283.789691      0.000091                    
P 18  19373.532613  11934.664341 -13354.338921    527.069923                    
V 18   6909.664986  16743.884553  23761.137694      0.039900                    
P 19 -18961.280935  17051.825722  -8315.425450   -525.450636                    
V 19   4290.028669  -9340.645192 -29468.503412      0.001388                    
P 20  12851.202884  22927.127451   3523.627670    418.781670                    
V 20  -5894.537222  -1583.826919  30555.239383      0.022641                    
P 21  25677.829868   4133.704844   6713.570847   -525.975335                    
V 21  -7437.208532   3326.519708  29524.411933     -0.010853                    
P 22  -8031.862008 -23942.541734  -7788.875901    318.636348                    
V 22   8762.620414   6668.910748 -28769.910612     -0.086994                    
P 23  -7006.539586 -16423.556710  19721.181456   -178.365315                    
V 23  13612.235133 -20790.738072 -13046.505439     -0.015919                    
P 24   7948.047595  14656.517647 -20771.256292    -18.674171                    
V 24 -26210.226699   1516.946604  -8789.979011     -0.006191                    
P 25  17244.272126  18440.764451   8430.628028   -191.304475                    
V 25   3714.829631  10338.520226 -29574.122491     -0.070292                    
P 26   9729.156130 -12684.194079  21197.809276   -397.420741                    
V 26  14292.175676  22846.871725   7155.659901     -0.111461                    
P 27  11706.059208 -23639.527149  -2181.503560    104.188002                    
V 27   3615.190601  -1094.951202  31951.746160      0.042123                    
P 28 -16165.029897  -2826.669533 -20269.620736    530.574340                    
V 28 -11056.066136 -24739.971218  11863.824468      0.027355                    
P 29  10306.414138  11117.809375  21816.221463    656.621718                    
V 29 -15301.909414  23013.290914  -4457.954484     -0.003622                    
P 30 -26577.142029   -831.915179  -1212.857697    133.460478                    
V 30  -1334.382682  -3093.865916  31443.345443      0.027012                    
P 31  22322.614512  -7892.349829  12499.263911    263.622641                    
V 31  15497.703398   2218.472287 -26136.773285     -0.019471                    
P 32  18603.026385 -11590.896156 -14977.576664    -25.970625                    
V 32  -7558.460543  17608.958436 -23012.016482     -0.082059                    
EOF
